STARLINK-35443          
1 66339U 25253W   26068.42155038  .00039633  00000+0  14414-2 0  9993
2 66339  42.9973 214.0010 0001762 280.0767  79.9886 15.27592799 20204
KUIPER-00226            
1 67785U 26030X   26068.62629313  .00046834  00000+0  15530-2 0  9998
2 67785  51.8814 220.1252 0017713  64.2781 296.0030 15.30655594  5078
