[{"OBJECT_NAME":"STARLINK-35443","OBJECT_ID":"2025-253W","EPOCH":"2026-03-09T10:07:01.952832","MEAN_MOTION":15.27592799,"ECCENTRICITY":0.00017628,"INCLINATION":42.9973,"RA_OF_ASC_NODE":214.001,"ARG_OF_PERICENTER":280.0767,"MEAN_ANOMALY":79.9886,"EPHEMERIS_TYPE":0,"CLASSIFICATION_TYPE":"U","NORAD_CAT_ID":66339,"ELEMENT_SET_NO":999,"REV_AT_EPOCH":2020,"BSTAR":0.0014414418,"MEAN_MOTION_DOT":0.00039633,"MEAN_MOTION_DDOT":0},{"OBJECT_NAME":"KUIPER-00226","OBJECT_ID":"2026-030X","EPOCH":"2026-03-09T15:01:51.726432","MEAN_MOTION":15.30655594,"ECCENTRICITY":0.0017713,"INCLINATION":51.8814,"RA_OF_ASC_NODE":220.1252,"ARG_OF_PERICENTER":64.2781,"MEAN_ANOMALY":296.003,"EPHEMERIS_TYPE":0,"CLASSIFICATION_TYPE":"U","NORAD_CAT_ID":67785,"ELEMENT_SET_NO":999,"REV_AT_EPOCH":507,"BSTAR":0.001553,"MEAN_MOTION_DOT":0.00046834,"MEAN_MOTION_DDOT":0}]
